[{"OBJECT_NAME":"HULIANWANG DIGUI-81","OBJECT_ID":"2025-187J","EPOCH":"2026-03-09T23:12:46.415232","MEAN_MOTION":13.29341703,"ECCENTRICITY":0.00010204,"INCLINATION":50.0061,"RA_OF_ASC_NODE":201.6814,"ARG_OF_PERICENTER":153.8224,"MEAN_ANOMALY":206.27,"EPHEMERIS_TYPE":0,"CLASSIFICATION_TYPE":"U","NORAD_CAT_ID":65313,"ELEMENT_SET_NO":999,"REV_AT_EPOCH":2651,"BSTAR":0.00011988064,"MEAN_MOTION_DOT":-6.8e-7,"MEAN_MOTION_DDOT":0},{"OBJECT_NAME":"COSMOS 1263","OBJECT_ID":"1981-033A","EPOCH":"2026-03-09T22:16:18.723072","MEAN_MOTION":14.29193035,"ECCENTRICITY":0.05805392,"INCLINATION":82.8561,"RA_OF_ASC_NODE":296.4467,"ARG_OF_PERICENTER":35.3286,"MEAN_ANOMALY":328.4954,"EPHEMERIS_TYPE":0,"CLASSIFICATION_TYPE":"U","NORAD_CAT_ID":12388,"ELEMENT_SET_NO":999,"REV_AT_EPOCH":25724,"BSTAR":0.00036478764,"MEAN_MOTION_DOT":6.481e-5,"MEAN_MOTION_DDOT":0}]
